[{"OBJECT_NAME":"STARLINK-32400","OBJECT_ID":"2024-193J","EPOCH":"2026-03-09T11:10:56.002944","MEAN_MOTION":15.30157214,"ECCENTRICITY":0.00010453,"INCLINATION":53.1604,"RA_OF_ASC_NODE":89.8226,"ARG_OF_PERICENTER":79.4954,"MEAN_ANOMALY":280.6164,"EPHEMERIS_TYPE":0,"CLASSIFICATION_TYPE":"U","NORAD_CAT_ID":61669,"ELEMENT_SET_NO":999,"REV_AT_EPOCH":7652,"BSTAR":-0.00015270135,"MEAN_MOTION_DOT":-4.872e-5,"MEAN_MOTION_DDOT":0},{"OBJECT_NAME":"COSMOS 1782","OBJECT_ID":"1986-074A","EPOCH":"2026-03-09T22:40:22.374624","MEAN_MOTION":15.33314157,"ECCENTRICITY":0.00054418,"INCLINATION":82.5242,"RA_OF_ASC_NODE":238.1482,"ARG_OF_PERICENTER":197.7479,"MEAN_ANOMALY":162.3574,"EPHEMERIS_TYPE":0,"CLASSIFICATION_TYPE":"U","NORAD_CAT_ID":16986,"ELEMENT_SET_NO":999,"REV_AT_EPOCH":13134,"BSTAR":0.00042191031,"MEAN_MOTION_DOT":0.00013623,"MEAN_MOTION_DDOT":0}]
